{"type": "FeatureCollection", "features": [ {"type": "Feature", "properties": {"norad_id": 58662, "name": "TIANMU-1 21", "group": "weather", "lat": -24.746130111214256, "lon": -69.84991869816125, "alt_km": 471.54522458589236, "timestamp": "2025-12-26T03:50:11.730553+00:00", "meta": {"OBJECT_NAME": "TIANMU-1 21", "OBJECT_ID": "2023-208C", "EPOCH": "2025-12-25T20:40:25.813632", "MEAN_MOTION": 15.31831464, "ECCENTRICITY": 0.0006505, "INCLINATION": 97.4374, "RA_OF_ASC_NODE": 113.3025, "ARG_OF_PERICENTER": 206.2671, "MEAN_ANOMALY": 153.8242, "EPHEMERIS_TYPE": 0, "CLASSIFICATION_TYPE": "U", "NORAD_CAT_ID": 58662, "ELEMENT_SET_NO": 999, "REV_AT_EPOCH": 11100, "BSTAR": 0.00039718, "MEAN_MOTION_DOT": 0.00012142, "MEAN_MOTION_DDOT": 0}, "tle": {"line1": "1 58662U 23208C   25359.86140988  .00012142  00000+0  39718-3 0  9990", "line2": "2 58662  97.4374 113.3025 0006505 206.2671 153.8242 15.31831464111002"}}, "geometry": {"type": "Point", "coordinates": [-69.84991869816125, -24.746130111214256]}}, {"type": "Feature", "properties": {"norad_id": 58663, "name": "TIANMU-1 22", "group": "weather", "lat": -63.72202816210292, "lon": 126.56783277465829, "alt_km": 489.02932097221947, "timestamp": "2025-12-26T03:50:11.730564+00:00", "meta": {"OBJECT_NAME": "TIANMU-1 22", "OBJECT_ID": "2023-208D", "EPOCH": "2025-12-25T20:15:36.726912", "MEAN_MOTION": 15.27824887, "ECCENTRICITY": 0.0003027, "INCLINATION": 97.438, "RA_OF_ASC_NODE": 110.9101, "ARG_OF_PERICENTER": 220.4245, "MEAN_ANOMALY": 139.677, "EPHEMERIS_TYPE": 0, "CLASSIFICATION_TYPE": "U", "NORAD_CAT_ID": 58663, "ELEMENT_SET_NO": 999, "REV_AT_EPOCH": 11083, "BSTAR": 0.0003527, "MEAN_MOTION_DOT": 9.512e-05, "MEAN_MOTION_DDOT": 0}, "tle": {"line1": "1 58663U 23208D   25359.84417508  .00009512  00000+0  35270-3 0  9990", "line2": "2 58663  97.4380 110.9101 0003027 220.4245 139.6770 15.27824887110833"}}, "geometry": {"type": "Point", "coordinates": [126.56783277465829, -63.72202816210292]}}, {"type": "Feature", "properties": {"norad_id": 58700, "name": "TIANMU-1 15", "group": "weather", "lat": -82.52462713947146, "lon": -85.89093578010447, "alt_km": 496.03011575250366, "timestamp": "2025-12-26T03:50:11.730574+00:00", "meta": {"OBJECT_NAME": "TIANMU-1 15", "OBJECT_ID": "2024-004A", "EPOCH": "2025-12-25T20:21:22.540320", "MEAN_MOTION": 15.24580244, "ECCENTRICITY": 0.0006098, "INCLINATION": 97.463, "RA_OF_ASC_NODE": 181.2686, "ARG_OF_PERICENTER": 234.3026, "MEAN_ANOMALY": 125.7645, "EPHEMERIS_TYPE": 0, "CLASSIFICATION_TYPE": "U", "NORAD_CAT_ID": 58700, "ELEMENT_SET_NO": 999, "REV_AT_EPOCH": 10934, "BSTAR": 0.00031696, "MEAN_MOTION_DOT": 7.744e-05, "MEAN_MOTION_DDOT": 0}, "tle": {"line1": "1 58700U 24004A   25359.84817755  .00007744  00000+0  31696-3 0  9998", "line2": "2 58700  97.4630 181.2686 0006098 234.3026 125.7645 15.24580244109348"}}, "geometry": {"type": "Point", "coordinates": [-85.89093578010447, -82.52462713947146]}}, {"type": "Feature", "properties": {"norad_id": 58701, "name": "TIANMU-1 16", "group": "weather", "lat": -7.568965460804281, "lon": -178.04560723710355, "alt_km": 497.38556502109077, "timestamp": "2025-12-26T03:50:11.730586+00:00", "meta": {"OBJECT_NAME": "TIANMU-1 16", "OBJECT_ID": "2024-004B", "EPOCH": "2025-12-25T19:59:38.730624", "MEAN_MOTION": 15.24607383, "ECCENTRICITY": 0.0004441, "INCLINATION": 97.457, "RA_OF_ASC_NODE": 180.6319, "ARG_OF_PERICENTER": 236.0923, "MEAN_ANOMALY": 123.9892, "EPHEMERIS_TYPE": 0, "CLASSIFICATION_TYPE": "U", "NORAD_CAT_ID": 58701, "ELEMENT_SET_NO": 999, "REV_AT_EPOCH": 10934, "BSTAR": 0.00029761, "MEAN_MOTION_DOT": 7.27e-05, "MEAN_MOTION_DDOT": 0}, "tle": {"line1": "1 58701U 24004B   25359.83308716  .00007270  00000+0  29761-3 0  9994", "line2": "2 58701  97.4570 180.6319 0004441 236.0923 123.9892 15.24607383109341"}}, "geometry": {"type": "Point", "coordinates": [-178.04560723710355, -7.568965460804281]}}, {"type": "Feature", "properties": {"norad_id": 58702, "name": "TIANMU-1 17", "group": "weather", "lat": 76.74272805140012, "lon": 147.58154694583274, "alt_km": 486.87585446927187, "timestamp": "2025-12-26T03:50:11.730596+00:00", "meta": {"OBJECT_NAME": "TIANMU-1 17", "OBJECT_ID": "2024-004C", "EPOCH": "2025-12-25T19:36:55.484640", "MEAN_MOTION": 15.24649939, "ECCENTRICITY": 0.00036, "INCLINATION": 97.4603, "RA_OF_ASC_NODE": 181.033, "ARG_OF_PERICENTER": 236.969, "MEAN_ANOMALY": 123.1201, "EPHEMERIS_TYPE": 0, "CLASSIFICATION_TYPE": "U", "NORAD_CAT_ID": 58702, "ELEMENT_SET_NO": 999, "REV_AT_EPOCH": 10933, "BSTAR": 0.00029297, "MEAN_MOTION_DOT": 7.164e-05, "MEAN_MOTION_DDOT": 0}, "tle": {"line1": "1 58702U 24004C   25359.81730885  .00007164  00000+0  29297-3 0  9995", "line2": "2 58702  97.4603 181.0330 0003600 236.9690 123.1201 15.24649939109331"}}, "geometry": {"type": "Point", "coordinates": [147.58154694583274, 76.74272805140012]}}, {"type": "Feature", "properties": {"norad_id": 58703, "name": "TIANMU-1 18", "group": "weather", "lat": 9.980916855916863, "lon": 2.893938227311847, "alt_km": 492.61783206483324, "timestamp": "2025-12-26T03:50:11.730607+00:00", "meta": {"OBJECT_NAME": "TIANMU-1 18", "OBJECT_ID": "2024-004D", "EPOCH": "2025-12-25T20:47:35.700288", "MEAN_MOTION": 15.24633406, "ECCENTRICITY": 0.0003003, "INCLINATION": 97.4621, "RA_OF_ASC_NODE": 181.2799, "ARG_OF_PERICENTER": 233.2139, "MEAN_ANOMALY": 126.8823, "EPHEMERIS_TYPE": 0, "CLASSIFICATION_TYPE": "U", "NORAD_CAT_ID": 58703, "ELEMENT_SET_NO": 999, "REV_AT_EPOCH": 10934, "BSTAR": 0.00030863, "MEAN_MOTION_DOT": 7.547e-05, "MEAN_MOTION_DDOT": 0}, "tle": {"line1": "1 58703U 24004D   25359.86638542  .00007547  00000+0  30863-3 0  9994", "line2": "2 58703  97.4621 181.2799 0003003 233.2139 126.8823 15.24633406109341"}}, "geometry": {"type": "Point", "coordinates": [2.893938227311847, 9.980916855916863]}}, {"type": "Feature", "properties": {"norad_id": 58990, "name": "INSAT-3DS", "group": "weather", "lat": 0.029189868339399974, "lon": -125.45051269984087, "alt_km": 35782.181557630785, "timestamp": "2025-12-26T03:50:11.730618+00:00", "meta": {"OBJECT_NAME": "INSAT-3DS", "OBJECT_ID": "2024-033A", "EPOCH": "2025-12-25T19:20:09.265056", "MEAN_MOTION": 1.00271096, "ECCENTRICITY": 0.0001294, "INCLINATION": 0.0616, "RA_OF_ASC_NODE": 99.2335, "ARG_OF_PERICENTER": 176.765, "MEAN_ANOMALY": 190.7092, "EPHEMERIS_TYPE": 0, "CLASSIFICATION_TYPE": "U", "NORAD_CAT_ID": 58990, "ELEMENT_SET_NO": 999, "REV_AT_EPOCH": 4533, "BSTAR": 0, "MEAN_MOTION_DOT": -1.35e-06, "MEAN_MOTION_DDOT": 0}, "tle": {"line1": "1 58990U 24033A   25359.80566279 -.00000135  00000+0  00000+0 0  9998", "line2": "2 58990   0.0616  99.2335 0001294 176.7650 190.7092  1.00271096 45334"}}, "geometry": {"type": "Point", "coordinates": [-125.45051269984087, 0.029189868339399974]}}, {"type": "Feature", "properties": {"norad_id": 59051, "name": "METEOR-M2 4", "group": "weather", "lat": 78.21148306182506, "lon": -176.10014993962665, "alt_km": 813.4085558579636, "timestamp": "2025-12-26T03:50:11.730629+00:00", "meta": {"OBJECT_NAME": "METEOR-M2 4", "OBJECT_ID": "2024-039A", "EPOCH": "2025-12-25T20:37:28.774848", "MEAN_MOTION": 14.22403301, "ECCENTRICITY": 0.0006363, "INCLINATION": 98.6785, "RA_OF_ASC_NODE": 316.5637, "ARG_OF_PERICENTER": 318.8869, "MEAN_ANOMALY": 41.1829, "EPHEMERIS_TYPE": 0, "CLASSIFICATION_TYPE": "U", "NORAD_CAT_ID": 59051, "ELEMENT_SET_NO": 999, "REV_AT_EPOCH": 9462, "BSTAR": 4.2881e-05, "MEAN_MOTION_DOT": 5.2e-07, "MEAN_MOTION_DDOT": 0}, "tle": {"line1": "1 59051U 24039A   25359.85936082  .00000052  00000+0  42881-4 0  9996", "line2": "2 59051  98.6785 316.5637 0006363 318.8869  41.1829 14.22403301 94623"}}, "geometry": {"type": "Point", "coordinates": [-176.10014993962665, 78.21148306182506]}}, {"type": "Feature", "properties": {"norad_id": 60133, "name": "GOES 19", "group": "weather", "lat": -0.004143714654462282, "lon": 77.27566742286827, "alt_km": 35788.357929575744, "timestamp": "2025-12-26T03:50:11.730640+00:00", "meta": {"OBJECT_NAME": "GOES 19", "OBJECT_ID": "2024-119A", "EPOCH": "2025-12-25T04:31:42.625056", "MEAN_MOTION": 1.0027105, "ECCENTRICITY": 0.00010365, "INCLINATION": 0.0152, "RA_OF_ASC_NODE": 183.0311, "ARG_OF_PERICENTER": 137.5029, "MEAN_ANOMALY": 126.1624, "EPHEMERIS_TYPE": 0, "CLASSIFICATION_TYPE": "U", "NORAD_CAT_ID": 60133, "ELEMENT_SET_NO": 999, "REV_AT_EPOCH": 521, "BSTAR": 0, "MEAN_MOTION_DOT": -2.27e-06, "MEAN_MOTION_DDOT": 0}, "tle": {"line1": "1 60133U 24119A   25359.18868779 -.00000227  00000+0  00000+0 0  9998", "line2": "2 60133   0.0152 183.0311 0001036 137.5029 126.1624  1.00271050  5213"}}, "geometry": {"type": "Point", "coordinates": [77.27566742286827, -0.004143714654462282]}}, {"type": "Feature", "properties": {"norad_id": 65815, "name": "FENGYUN 3H", "group": "weather", "lat": -36.031273943316066, "lon": 113.09511102854508, "alt_km": 832.1146785891387, "timestamp": "2025-12-26T03:50:11.730653+00:00", "meta": {"OBJECT_NAME": "FENGYUN 3H", "OBJECT_ID": "2025-219A", "EPOCH": "2025-12-25T20:03:20.693088", "MEAN_MOTION": 14.19908106, "ECCENTRICITY": 8.57e-05, "INCLINATION": 98.6602, "RA_OF_ASC_NODE": 299.1427, "ARG_OF_PERICENTER": 109.4741, "MEAN_ANOMALY": 250.6528, "EPHEMERIS_TYPE": 0, "CLASSIFICATION_TYPE": "U", "NORAD_CAT_ID": 65815, "ELEMENT_SET_NO": 999, "REV_AT_EPOCH": 1278, "BSTAR": 6.468e-05, "MEAN_MOTION_DOT": 9.4e-07, "MEAN_MOTION_DDOT": 0}, "tle": {"line1": "1 65815U 25219A   25359.83565617  .00000094  00000+0  64680-4 0  9999", "line2": "2 65815  98.6602 299.1427 0000857 109.4741 250.6528 14.19908106 12783"}}, "geometry": {"type": "Point", "coordinates": [113.09511102854508, -36.031273943316066]}}]}